OBJECT C                
1 57582U 23117C   25206.15730174  .00007607  00000+0  29346-3 0  9990
2 57582  97.4438 280.9290 0007632 331.1530  28.9285 15.26562553108461
